[{"OBJECT_NAME":"SPAWAR-CAL-R","OBJECT_ID":"2018-099U","EPOCH":"2026-03-08T15:37:40.202400","MEAN_MOTION":15.05212097,"ECCENTRICITY":0.00197014,"INCLINATION":97.4524,"RA_OF_ASC_NODE":111.5817,"ARG_OF_PERICENTER":348.9052,"MEAN_ANOMALY":11.1737,"EPHEMERIS_TYPE":0,"CLASSIFICATION_TYPE":"U","NORAD_CAT_ID":43776,"ELEMENT_SET_NO":999,"REV_AT_EPOCH":39687,"BSTAR":0.00025335573,"MEAN_MOTION_DOT":3.57e-5,"MEAN_MOTION_DDOT":0},{"OBJECT_NAME":"STARLINK-34988","OBJECT_ID":"2025-194V","EPOCH":"2026-03-09T14:43:43.705056","MEAN_MOTION":15.01260784,"ECCENTRICITY":0.0002492,"INCLINATION":97.6042,"RA_OF_ASC_NODE":285.4211,"ARG_OF_PERICENTER":53.9876,"MEAN_ANOMALY":306.1579,"EPHEMERIS_TYPE":0,"CLASSIFICATION_TYPE":"U","NORAD_CAT_ID":65453,"ELEMENT_SET_NO":999,"REV_AT_EPOCH":2970,"BSTAR":0.00019946,"MEAN_MOTION_DOT":2.505e-5,"MEAN_MOTION_DDOT":0}]
