SPAWAR-CAL-R            
1 43776U 18099U   26067.65115975  .00003570  00000+0  25336-3 0  9990
2 43776  97.4524 111.5817 0019701 348.9052  11.1737 15.05212097396878
STARLINK-34988          
1 65453U 25194V   26068.61370029  .00002505  00000+0  19946-3 0  9997
2 65453  97.6042 285.4211 0002492  53.9876 306.1579 15.01260784 29704
